ARIANE 5 R/B            
1 28499U 04049H   25317.40876941  .00002303  00000+0  26080-3 0  9992
2 28499  98.2512 116.6432 0084862   8.7971 351.4706 14.84924373128534
CZ-2D R/B               
1 28738U 05024B   25317.45379302  .00051062  00000+0  86689-3 0  9993
2 28738  97.3666 324.1733 0008231  87.8788 272.3406 15.51285482121717
ALOS (DAICHI)           
1 28931U 06002A   25317.82320123  .00004794  00000+0  81914-3 0  9999
2 28931  98.1040 269.5245 0001032  53.6685 306.4616 14.69354654 56463
H-2A R/B                
1 28932U 06002B   25317.84016911  .00018601  00000+0  99605-3 0  9997
2 28932  98.2299  90.2511 0054496 275.2065  84.2947 15.13787214 76891
RESURS-DK 1             
1 29228U 06021A   25317.58997910  .00006841  00000+0  40399-3 0  9994
2 29228  69.9326 177.1573 0007149 283.5526  76.4842 15.11930723 69977
CZ-4B R/B               
1 29507U 06046C   25317.58839475  .00012530  00000+0  65631-3 0  9990
2 29507  97.5786 357.8070 0033097 311.4528  48.3862 15.15465692 42453
CZ-2C R/B               
1 31114U 07010B   25317.76255774  .00000393  00000+0  20018-3 0  9997
2 31114  98.3961  71.8739 0057918 271.2751  88.1791 14.20192560963268
COSMO-SKYMED 1          
1 31598U 07023A   25317.81888527  .00012792  00000+0  11596-2 0  9997
2 31598  97.8863 143.0340 0001452  82.4198 277.7187 14.95475976997571
COSMOS 2428             
1 31792U 07029A   25317.64040544 -.00000114  00000+0 -35310-4 0  9998
2 31792  70.9366  86.9714 0002154  75.2995 284.8364 14.12888860947707
SL-16 R/B               
1 31793U 07029B   25317.70532259  .00000475  00000+0  27095-3 0  9993
2 31793  70.9768  56.1870 0002137 259.4954 268.1621 14.14810223948968
KORONAS-FOTON           
1 33504U 09003A   25317.26864861  .00022855  00000+0  56509-3 0  9995
2 33504  82.4336  36.6159 0011088 210.0271 150.0341 15.40269024927807
CZ-2C R/B               
1 37731U 11030B   25317.86826644  .00004634  00000+0  59389-3 0  9991
2 37731  97.8363 272.6248 0053401   9.0733  10.7145 14.80754443772953
